OBJECT_NAME,OBJECT_ID,EPOCH,MEAN_MOTION,ECCENTRICITY,INCLINATION,RA_OF_ASC_NODE,ARG_OF_PERICENTER,MEAN_ANOMALY,EPHEMERIS_TYPE,CLASSIFICATION_TYPE,NORAD_CAT_ID,ELEMENT_SET_NO,REV_AT_EPOCH,BSTAR,MEAN_MOTION_DOT,MEAN_MOTION_DDOT
STARLINK-30997,2023-186K,2026-06-16T20:52:37.579296,15.27599860,.00032348,43.0029,223.5778,265.2109,94.8374,0,U,58482,999,14106,.45851401E-3,.12385E-3,0
STARLINK-30994,2023-186L,2026-06-18T02:16:45.197184,15.32874377,.00068723,42.9978,51.9273,229.5032,130.5223,0,U,58483,999,14317,.13084731E-2,.42422E-3,0
STARLINK-30991,2023-186M,2026-06-16T10:37:44.067360,15.27580705,.0002129,43.0056,225.5588,275.3075,84.7534,0,U,58484,999,14098,.42452019E-4,.906E-5,0
STARLINK-30979,2023-186N,2026-06-18T02:54:32.518080,15.27589762,.0000178,43.0005,216.6612,351.7388,8.3460,0,U,58485,999,14124,-.75927454E-4,-.2351E-4,0
STARLINK-31005,2023-186P,2026-06-16T20:56:20.286528,15.27577768,.00019264,43.0039,223.6277,268.0151,92.0480,0,U,58486,999,14105,.17824074E-4,.228E-5,0
STARLINK-30987,2023-186Q,2026-06-18T04:25:01.393824,15.27574448,.00012035,43.0018,216.2669,263.0942,96.9773,0,U,58487,999,14125,.28909337E-4,.533E-5,0
STARLINK-31000,2023-186R,2026-06-18T02:34:12.966528,15.27583701,.0001125,42.9997,216.5524,272.6994,87.3729,0,U,58488,999,14124,.14216074E-3,.3652E-4,0
STARLINK-30993,2023-186S,2026-06-15T21:18:27.049248,15.27569742,.0000305,42.9820,229.1388,264.7499,95.3318,0,U,58489,999,14090,-.55923E-4,-.1799E-4,0
STARLINK-30978,2023-186T,2026-06-16T20:35:59.330976,15.27577625,.00012327,43.0035,223.5228,261.2609,98.8103,0,U,58490,999,14105,.18976008E-4,.26E-5,0
STARLINK-30953,2023-186U,2026-06-18T01:55:51.831264,15.27576238,.0001613,43.0057,60.5460,268.0430,92.0237,0,U,58491,999,14324,.18280184E-4,.241E-5,0
STARLINK-30986,2023-186V,2026-06-16T20:30:25.680096,15.27578430,.00009466,43.0006,223.4897,279.9805,80.0940,0,U,58492,999,14105,.52760309E-4,.119E-4,0
STARLINK-30985,2023-186W,2026-06-16T20:19:19.643232,15.27573210,.00023486,42.9950,223.4309,271.0672,88.9911,0,U,58493,999,14105,.3215092E-4,.622E-5,0
STARLINK-30981,2023-186X,2026-06-18T05:11:04.522848,15.27577226,.00014909,42.9972,215.6432,278.2223,81.8459,0,U,58494,999,14126,.37760482E-4,.777E-5,0
STARLINK-31002,2023-186Y,2026-06-16T21:11:08.262528,15.27571524,.00018895,43.0052,223.6996,261.9426,98.1212,0,U,58495,999,14122,.67211988E-4,.1587E-4,0
STARLINK-31026,2023-191A,2026-06-18T06:47:46.256064,15.27573043,.00011173,42.9997,262.3325,267.3426,92.7298,0,U,58508,999,14077,.1409617E-5,-.223E-5,0
STARLINK-31020,2023-191B,2026-06-18T06:31:06.649536,15.27581062,.00019919,43.0008,262.2515,275.2272,84.8352,0,U,58509,999,14077,.135615E-3,.3471E-4,0
STARLINK-30989,2023-191C,2026-06-18T06:56:34.818432,15.27582009,.00015109,43.0026,255.5701,278.0800,81.9881,0,U,58510,999,14088,.43303439E-4,.93E-5,0
STARLINK-30968,2023-191D,2026-06-18T07:02:09.608064,15.27569030,.00010965,43.0005,255.5978,271.3355,88.7371,0,U,58511,999,14085,.11698529E-3,.2957E-4,0
STARLINK-30982,2023-191E,2026-06-16T23:44:32.647200,15.27583805,.00029498,43.0179,263.0108,274.8241,85.2274,0,U,58512,999,14065,.34049912E-4,.674E-5,0
STARLINK-30998,2023-191F,2026-06-16T23:48:15.800256,15.27578052,.0001735,43.0034,263.0372,284.5571,75.5088,0,U,58513,999,14068,.46825278E-4,.1026E-4,0
STARLINK-30983,2023-191G,2026-06-18T06:30:41.201280,15.27577037,.00014545,43.0011,255.4319,267.9865,92.0820,0,U,58514,999,14050,-.4768612E-4,-.1574E-4,0
STARLINK-31017,2023-191H,2026-06-18T00:31:55.866432,15.27585699,.00021008,43.0044,24.5385,291.5806,68.4822,0,U,58515,999,14352,.41949906E-4,.892E-5,0
STARLINK-31028,2023-191J,2026-06-18T07:24:08.033184,15.27575918,.00015537,43.0040,254.8500,271.2728,88.7945,0,U,58516,999,14086,.12783657E-4,.9E-6,0
STARLINK-31011,2023-191K,2026-06-18T07:18:34.887744,15.27579603,.00016462,43.0023,254.8273,273.9704,86.0959,0,U,58517,999,14086,.38676809E-4,.802E-5,0
STARLINK-31021,2023-191L,2026-06-18T06:51:02.038464,15.27578035,.00001819,42.9983,255.5178,296.3535,63.7298,0,U,58518,999,14085,.22421395E-4,.355E-5,0
STARLINK-31010,2023-191M,2026-06-18T06:45:28.487808,15.27580960,.00006367,42.9992,255.4519,280.9945,79.0835,0,U,58519,999,14085,-.46544016E-4,-.1542E-4,0
STARLINK-31003,2023-191N,2026-06-18T07:16:44.029632,15.27576448,.00011591,43.0019,254.8154,235.8370,124.2372,0,U,58520,999,14086,.2199681E-4,.343E-5,0
STARLINK-31015,2023-191P,2026-06-16T13:00:03.885696,15.27586040,.00040269,43.0005,264.8196,277.0801,82.9593,0,U,58521,999,14056,.41173365E-3,.11088E-3,0
STARLINK-30932,2023-191R,2026-06-16T13:11:10.885920,15.27567619,.0001255,43.0040,264.8724,272.0415,88.0293,0,U,58523,999,14054,.331312E-5,-.171E-5,0
STARLINK-30992,2023-191S,2026-06-16T13:16:44.090112,15.27567302,.00019186,43.0016,264.8987,285.0635,75.0005,0,U,58524,999,14059,-.64863247E-4,-.2046E-4,0
