STARLINK-30997          
1 58482U 23186K   26167.86987939  .00012385  00000+0  45851-3 0  9992
2 58482  43.0029 223.5778 0003234 265.2109  94.8374 15.27599860141067
STARLINK-30994          
1 58483U 23186L   26169.09496756  .00042422  00000+0  13085-2 0  9990
2 58483  42.9978  51.9273 0006872 229.5032 130.5223 15.32874377143171
STARLINK-30991          
1 58484U 23186M   26167.44287115  .00000906  00000+0  42452-4 0  9998
2 58484  43.0056 225.5588 0002129 275.3075  84.7534 15.27580705140980
STARLINK-30979          
1 58485U 23186N   26169.12120970 -.00002351  00000+0 -75927-4 0  9992
2 58485  43.0005 216.6612 0000178 351.7388   8.3460 15.27589762141244
STARLINK-31005          
1 58486U 23186P   26167.87245702  .00000228  00000+0  17824-4 0  9995
2 58486  43.0039 223.6277 0001926 268.0151  92.0480 15.27577768141051
STARLINK-30987          
1 58487U 23186Q   26169.18404391  .00000533  00000+0  28909-4 0  9998
2 58487  43.0018 216.2669 0001203 263.0942  96.9773 15.27574448141255
STARLINK-31000          
1 58488U 23186R   26169.10709452  .00003652  00000+0  14216-3 0  9997
2 58488  42.9997 216.5524 0001125 272.6994  87.3729 15.27583701141245
STARLINK-30993          
1 58489U 23186S   26166.88781307 -.00001799  00000+0 -55923-4 0  9992
2 58489  42.9820 229.1388 0000305 264.7499  95.3318 15.27569742140904
STARLINK-30978          
1 58490U 23186T   26167.85832559  .00000260  00000+0  18976-4 0  9995
2 58490  43.0035 223.5228 0001232 261.2609  98.8103 15.27577625141058
STARLINK-30953          
1 58491U 23186U   26169.08046101  .00000241  00000+0  18280-4 0  9990
2 58491  43.0057  60.5460 0001613 268.0430  92.0237 15.27576238143246
STARLINK-30986          
1 58492U 23186V   26167.85446389  .00001190  00000+0  52760-4 0  9991
2 58492  43.0006 223.4897 0000946 279.9805  80.0940 15.27578430141051
STARLINK-30985          
1 58493U 23186W   26167.84675513  .00000622  00000+0  32151-4 0  9995
2 58493  42.9950 223.4309 0002348 271.0672  88.9911 15.27573210141055
STARLINK-30981          
1 58494U 23186X   26169.21602457  .00000777  00000+0  37760-4 0  9998
2 58494  42.9972 215.6432 0001490 278.2223  81.8459 15.27577226141261
STARLINK-31002          
1 58495U 23186Y   26167.88273452  .00001587  00000+0  67212-4 0  9994
2 58495  43.0052 223.6996 0001889 261.9426  98.1212 15.27571524141222
STARLINK-31026          
1 58508U 23191A   26169.28317426 -.00000223  00000+0  14096-5 0  9991
2 58508  42.9997 262.3325 0001117 267.3426  92.7298 15.27573043140774
STARLINK-31020          
1 58509U 23191B   26169.27160474  .00003471  00000+0  13561-3 0  9991
2 58509  43.0008 262.2515 0001991 275.2272  84.8352 15.27581062140770
STARLINK-30989          
1 58510U 23191C   26169.28929188  .00000930  00000+0  43303-4 0  9994
2 58510  43.0026 255.5701 0001510 278.0800  81.9881 15.27582009140888
STARLINK-30968          
1 58511U 23191D   26169.29316676  .00002957  00000+0  11699-3 0  9991
2 58511  43.0005 255.5978 0001096 271.3355  88.7371 15.27569030140857
STARLINK-30982          
1 58512U 23191E   26167.98926675  .00000674  00000+0  34050-4 0  9993
2 58512  43.0179 263.0108 0002949 274.8241  85.2274 15.27583805140657
STARLINK-30998          
1 58513U 23191F   26167.99184954  .00001026  00000+0  46825-4 0  9996
2 58513  43.0034 263.0372 0001735 284.5571  75.5088 15.27578052140683
STARLINK-30983          
1 58514U 23191G   26169.27131020 -.00001574  00000+0 -47686-4 0  9992
2 58514  43.0011 255.4319 0001454 267.9865  92.0820 15.27577037140505
STARLINK-31017          
1 58515U 23191H   26169.02217438  .00000892  00000+0  41950-4 0  9992
2 58515  43.0044  24.5385 0002100 291.5806  68.4822 15.27585699143524
STARLINK-31028          
1 58516U 23191J   26169.30842631  .00000090  00000+0  12784-4 0  9996
2 58516  43.0040 254.8500 0001553 271.2728  88.7945 15.27575918140865
STARLINK-31011          
1 58517U 23191K   26169.30457046  .00000802  00000+0  38677-4 0  9999
2 58517  43.0023 254.8273 0001646 273.9704  86.0959 15.27579603140861
STARLINK-31021          
1 58518U 23191L   26169.28544026  .00000355  00000+0  22421-4 0  9995
2 58518  42.9983 255.5178 0000181 296.3535  63.7298 15.27578035140856
STARLINK-31010          
1 58519U 23191M   26169.28157972 -.00001542  00000+0 -46544-4 0  9999
2 58519  42.9992 255.4519 0000636 280.9945  79.0835 15.27580960140851
STARLINK-31003          
1 58520U 23191N   26169.30328738  .00000343  00000+0  21997-4 0  9995
2 58520  43.0019 254.8154 0001159 235.8370 124.2372 15.27576448140861
STARLINK-31015          
1 58521U 23191P   26167.54171164  .00011088  00000+0  41173-3 0  9994
2 58521  43.0005 264.8196 0004026 277.0801  82.9593 15.27586040140568
STARLINK-30932          
1 58523U 23191R   26167.54943155 -.00000171  00000+0  33131-5 0  9992
2 58523  43.0040 264.8724 0001255 272.0415  88.0293 15.27567619140546
STARLINK-30992          
1 58524U 23191S   26167.55328808 -.00002046  00000+0 -64863-4 0  9995
2 58524  43.0016 264.8987 0001918 285.0635  75.0005 15.27567302140596
